NORAD_CAT_ID,OBJECT_NAME,OBJECT_TYPE,EPOCH,MEAN_MOTION,ECCENTRICITY,INCLINATION,RA_OF_ASC_NODE,ARG_OF_PERICENTER,MEAN_ANOMALY,BSTAR,MEAN_MOTION_DOT,MEAN_MOTION_DDOT,TLE_LINE0,TLE_LINE1,TLE_LINE2,SEMIMAJOR_AXIS,PERIOD,APOGEE,PERIGEE,DECAYED
51787.0,STARLINK-3619,PAYLOAD,2022-12-11 05:35:07,15.08853822,0.0002748,53.2167,266.3592,25.1038,335.0088,0.0013855,0.0002184,0.0,0 STARLINK-3619,1 51787U 22017V   22345.23272372  .00021840  00000-0  13855-2 0  9993,2 51787  53.2167 266.3592 0002748  25.1038 335.0088 15.08853822 45106,6917.8380000000025,95.437,541.604,537.802,0.0
51787.0,STARLINK-3619,PAYLOAD,2022-12-12 03:50:30,15.08845012,0.0002882,53.2161,262.1963,25.6387,334.4748,0.001061,0.00016641,0.0,0 STARLINK-3619,1 51787U 22017V   22346.16007413  .00016641  00000-0  10610-2 0  9997,2 51787  53.2161 262.1963 0002882  25.6387 334.4748 15.08845012 45240,6917.865,95.437,541.724,537.736,0.0
51787.0,STARLINK-3619,PAYLOAD,2022-12-13 02:05:54,15.08840828,0.0002485,53.2158,258.0317,27.3779,332.7344,0.00027721,4.126e-05,0.0,0 STARLINK-3619,1 51787U 22017V   22347.08743460  .00004126  00000-0  27721-3 0  9995,2 51787  53.2158 258.0317 0002485  27.3779 332.7344 15.08840828 45384,6917.878000000002,95.438,541.462,538.024,0.0
51787.0,STARLINK-3619,PAYLOAD,2022-12-14 03:32:04,15.08840279,0.0002613,53.2166,253.2737,29.4813,330.6326,0.0001334,1.835e-05,0.0,0 STARLINK-3619,1 51787U 22017V   22348.14727734  .00001835  00000-0  13340-3 0  9995,2 51787  53.2166 253.2737 0002613  29.4813 330.6326 15.08840279 45546,6917.88,95.438,541.552,537.937,0.0
51787.0,STARLINK-3619,PAYLOAD,2022-12-14 11:28:59,15.08850261,0.0002653,53.2173,251.7874,30.547,329.5676,0.00016381,2.32e-05,0.0,0 STARLINK-3619,1 51787U 22017V   22348.47847216  .00002320  00000-0  16381-3 0  9997,2 51787  53.2173 251.7874 0002653  30.5470 329.5676 15.08850261 43955,6917.849,95.437,541.549,537.879,0.0
51787.0,STARLINK-3619,PAYLOAD,2022-12-15 03:22:51,15.08836706,0.0002739,53.2166,248.8144,27.9597,332.1542,7.0932e-05,8.400000000000001e-06,0.0,0 STARLINK-3619,1 51787U 22017V   22349.14087831  .00000840  00000-0  70932-4 0  9999,2 51787  53.2166 248.8144 0002739  27.9597 332.1542 15.08836706 44051,6917.89,95.438,541.65,537.861,0.0
51787.0,STARLINK-3619,PAYLOAD,2022-12-15 12:55:10,15.08843356,0.0002726,53.2169,247.0305,28.1322,331.9817,0.00015215,2.134e-05,0.0,0 STARLINK-3619,1 51787U 22017V   22349.53831530  .00002134  00000-0  15215-3 0  9995,2 51787  53.2169 247.0305 0002726  28.1322 331.9817 15.08843356 45758,6917.87,95.437,541.621,537.849,0.0
51787.0,STARLINK-3619,PAYLOAD,2022-12-15 19:16:43,15.08840268,0.0002773,53.2167,245.8411,27.3283,332.7855,3.772300000000001e-05,3.12e-06,0.0,0 STARLINK-3619,1 51787U 22017V   22349.80327610  .00000312  00000-0  37723-4 0  9999,2 51787  53.2167 245.8411 0002773  27.3283 332.7855 15.08840268 44152,6917.88,95.438,541.663,537.826,0.0
51787.0,STARLINK-3619,PAYLOAD,2022-12-16 09:35:10,15.08852917,0.000284,53.2169,243.1645,27.1346,332.9794,0.00023834,3.508e-05,0.0,0 STARLINK-3619,1 51787U 22017V   22350.39942897  .00003508  00000-0  23834-3 0  9992,2 51787  53.2169 243.1645 0002840  27.1346 332.9794 15.08852917 44245,6917.840999999999,95.437,541.6709999999998,537.741,0.0
51787.0,STARLINK-3619,PAYLOAD,2022-12-16 20:42:53,15.08832663,0.0002813,53.2164,241.0832,25.969,334.1443,-0.00012862,-2.335e-05,0.0,0 STARLINK-3619,1 51787U 22017V   22350.86311618 -.00002335  00000-0 -12862-3 0  9993,2 51787  53.2164 241.0832 0002813  25.9690 334.1443 15.08832663 45953,6917.903,95.438,541.714,537.822,0.0
51787.0,STARLINK-3619,PAYLOAD,2022-12-17 03:04:26,15.08824289,0.0002833999999999,53.2165,239.8939,26.9159,333.1979,-0.00021924,-3.775e-05,0.0,0 STARLINK-3619,1 51787U 22017V   22351.12808317 -.00003775  00000-0 -21924-3 0  9998,2 51787  53.2165 239.8939 0002834  26.9159 333.1979 15.08824289 45993,6917.928000000001,95.439,541.754,537.8330000000002,0.0
51787.0,STARLINK-3619,PAYLOAD,2022-12-17 09:25:59,15.08819364,0.0002818,53.2165,238.7045,27.2552,332.8588,-0.0001827,-3.194e-05,0.0,0 STARLINK-3619,1 51787U 22017V   22351.39304804 -.00003194  00000-0 -18270-3 0  9994,2 51787  53.2165 238.7045 0002818  27.2552 332.8588 15.08819364 44395,6917.943,95.439,541.758,537.859,0.0
51787.0,STARLINK-3619,PAYLOAD,2022-12-17 15:47:32,15.08826345,0.0002848,53.2172,237.5147,26.4777,333.636,-4.2006e-05,-9.57e-06,0.0,0 STARLINK-3619,1 51787U 22017V   22351.65801242 -.00000957  00000-0 -42006-4 0  9990,2 51787  53.2172 237.5147 0002848  26.4777 333.6360 15.08826345 44435,6917.922,95.438,541.757,537.817,0.0
51787.0,STARLINK-3619,PAYLOAD,2022-12-18 01:19:50,15.08848578,0.0002888,53.2171,235.7306,26.3518,333.7621,-0.0002268,-3.897e-05,0.0,0 STARLINK-3619,1 51787U 22017V   22352.05544368 -.00003897  00000-0 -22680-3 0  9999,2 51787  53.2171 235.7306 0002888  26.3518 333.7621 15.08848578 46139,6917.854,95.437,541.717,537.721,0.0
51787.0,STARLINK-3619,PAYLOAD,2022-12-18 09:16:46,15.0883651,0.0002856999999999,53.2171,234.2437,27.4249,332.6894,7.6292e-05,9.26e-06,0.0,0 STARLINK-3619,1 51787U 22017V   22352.38664676  .00000926  00000-0  76292-4 0  9997,2 51787  53.2171 234.2437 0002857  27.4249 332.6894 15.08836510 44543,6917.891,95.438,541.732,537.78,0.0
51787.0,STARLINK-3619,PAYLOAD,2022-12-18 20:24:28,15.08832077,0.0002856,53.2169,232.1611,27.3089,332.8052,6.3295e-05,7.19e-06,0.0,0 STARLINK-3619,1 51787U 22017V   22352.85033086  .00000719  00000-0  63295-4 0  9993,2 51787  53.2169 232.1611 0002856  27.3089 332.8052 15.08832077 44611,6917.905,95.438,541.745,537.794,0.0
51787.0,STARLINK-3619,PAYLOAD,2022-12-19 01:10:38,15.08827375,0.0002869,53.2171,231.2699,28.5753,331.5396,0.00012097,1.637e-05,0.0,0 STARLINK-3619,1 51787U 22017V   22353.04905415  .00001637  00000-0  12097-3 0  9992,2 51787  53.2171 231.2699 0002869  28.5753 331.5396 15.08827375 46282,6917.919,95.438,541.769,537.799,0.0
51787.0,STARLINK-3619,PAYLOAD,2022-12-19 21:50:37,15.08851165,0.0002881,53.2173,227.4035,30.8166,329.2994,0.00023236,3.413e-05,0.0,0 STARLINK-3619,1 51787U 22017V   22353.91016079  .00003413  00000-0  23236-3 0  9998,2 51787  53.2173 227.4035 0002881  30.8166 329.2994 15.08851165 46410,6917.846,95.437,541.7040000000002,537.7180000000002,0.0
51787.0,STARLINK-3619,PAYLOAD,2022-12-20 10:33:43,15.08853759,0.000296,53.2162,225.0253,31.7073,328.4097,0.00021351,3.112e-05,0.0,0 STARLINK-3619,1 51787U 22017V   22354.44008148  .00003112  00000-0  21351-3 0  9997,2 51787  53.2162 225.0253 0002960  31.7073 328.4097 15.08853759 44851,6917.8380000000025,95.437,541.751,537.656,0.0
51787.0,STARLINK-3619,PAYLOAD,2022-12-20 20:06:02,15.08844305,0.0002784,53.2163,223.2405,30.3199,329.7954,6.6755e-05,7.74e-06,0.0,0 STARLINK-3619,1 51787U 22017V   22354.83752346  .00000774  00000-0  66755-4 0  9995,2 51787  53.2163 223.2405 0002784  30.3199 329.7954 15.08844305 46551,6917.8669999999975,95.437,541.658,537.806,0.0
51787.0,STARLINK-3619,PAYLOAD,2022-12-21 10:24:30,15.08833756,0.0002868,53.2162,220.5648,30.4385,329.6774,-9.191e-05,-1.751e-05,0.0,0 STARLINK-3619,1 51787U 22017V   22355.43368997 -.00001751  00000-0 -91910-4 0  9996,2 51787  53.2162 220.5648 0002868  30.4385 329.6774 15.08833756 46647,6917.899,95.438,541.749,537.78,0.0
51787.0,STARLINK-3619,PAYLOAD,2022-12-21 16:46:02,15.08841552,0.0002858,53.2162,219.3754,29.98,330.1356,-6.5682e-05,-1.334e-05,0.0,0 STARLINK-3619,1 51787U 22017V   22355.69864583 -.00001334  00000-0 -65682-4 0  9990,2 51787  53.2162 219.3754 0002858  29.9800 330.1356 15.08841552 46685,6917.876,95.437,541.7180000000002,537.764,0.0
51787.0,STARLINK-3619,PAYLOAD,2022-12-22 10:15:17,15.08848006,0.000279,53.2166,216.1038,31.9317,328.1844,2.431e-05,9.8e-07,0.0,0 STARLINK-3619,1 51787U 22017V   22356.42728053  .00000098  00000-0  24310-4 0  9990,2 51787  53.2166 216.1038 0002790  31.9317 328.1844 15.08848006 45151,6917.856,95.437,541.651,537.7909999999998,0.0
51787.0,STARLINK-3619,PAYLOAD,2022-12-22 16:36:50,15.08839133,0.0002824,53.2166,214.9142,32.1108,328.0056,3.1898e-05,2.19e-06,0.0,0 STARLINK-3619,1 51787U 22017V   22356.69224681  .00000219  00000-0  31898-4 0  9991,2 51787  53.2166 214.9142 0002824  32.1108 328.0056 15.08839133 45191,6917.8830000000025,95.438,541.702,537.794,0.0
51787.0,STARLINK-3619,PAYLOAD,2022-12-23 00:33:46,15.08835237,0.0002884,53.2165,213.4279,32.7504,327.3666,4.5948e-05,4.43e-06,0.0,0 STARLINK-3619,1 51787U 22017V   22357.02345065  .00000443  00000-0  45948-4 0  9999,2 51787  53.2165 213.4279 0002884  32.7504 327.3666 15.08835237 46884,6917.895,95.438,541.755,537.765,0.0
51787.0,STARLINK-3619,PAYLOAD,2022-12-23 14:52:14,15.08837254,0.0002708,53.2171,210.7516,29.4758,330.6386,8.9429e-05,1.135e-05,0.0,0 STARLINK-3619,1 51787U 22017V   22357.61960895  .00001135  00000-0  89429-4 0  9999,2 51787  53.2171 210.7516 0002708  29.4758 330.6386 15.08837254 45330,6917.889,95.438,541.627,537.88,0.0
51787.0,STARLINK-3619,PAYLOAD,2022-12-24 00:24:32,15.0884366,0.0002933,53.2162,208.9682,33.6134,326.5044,0.00012575,1.714e-05,0.0,0 STARLINK-3619,1 51787U 22017V   22358.01704516  .00001714  00000-0  12575-3 0  9990,2 51787  53.2162 208.9682 0002933  33.6134 326.5044 15.08843660 47030,6917.869000000002,95.437,541.763,537.705,0.0
51787.0,STARLINK-3619,PAYLOAD,2022-12-24 06:46:05,15.08836995,0.0002987,53.2162,207.7785,31.5917,328.5254,3.4698e-06,-2.33e-06,0.0,0 STARLINK-3619,1 51787U 22017V   22358.28201251 -.00000233  00000-0  34698-5 0  9995,2 51787  53.2162 207.7785 0002987  31.5917 328.5254 15.08836995 47078,6917.89,95.438,541.821,537.688,0.0
51787.0,STARLINK-3619,PAYLOAD,2022-12-24 21:04:34,15.08833865,0.0002931,53.2165,205.1021,33.133,326.9845,9.8928e-05,1.286e-05,0.0,0 STARLINK-3619,1 51787U 22017V   22358.87817403  .00001286  00000-0  98928-4 0  9995,2 51787  53.2165 205.1021 0002931  33.1330 326.9845 15.08833865 45521,6917.899,95.438,541.7919999999998,537.737,0.0
